[{"OBJECT_NAME":"STARLINK-4200","OBJECT_ID":"2022-062AY","EPOCH":"2026-03-09T07:05:43.319328","MEAN_MOTION":15.0883264,"ECCENTRICITY":0.00014434,"INCLINATION":53.2188,"RA_OF_ASC_NODE":15.8899,"ARG_OF_PERICENTER":98.2929,"MEAN_ANOMALY":261.8227,"EPHEMERIS_TYPE":0,"CLASSIFICATION_TYPE":"U","NORAD_CAT_ID":52876,"ELEMENT_SET_NO":999,"REV_AT_EPOCH":20600,"BSTAR":-1.6939766e-5,"MEAN_MOTION_DOT":-5.57e-6,"MEAN_MOTION_DDOT":0},{"OBJECT_NAME":"COSMOS 2251 DEB","OBJECT_ID":"1993-036AJA","EPOCH":"2026-02-11T08:52:27.880032","MEAN_MOTION":15.05018922,"ECCENTRICITY":0.00700444,"INCLINATION":73.9325,"RA_OF_ASC_NODE":48.614,"ARG_OF_PERICENTER":290.1885,"MEAN_ANOMALY":69.178,"EPHEMERIS_TYPE":0,"CLASSIFICATION_TYPE":"U","NORAD_CAT_ID":35071,"ELEMENT_SET_NO":999,"REV_AT_EPOCH":68448,"BSTAR":0.0010407924,"MEAN_MOTION_DOT":0.00015602,"MEAN_MOTION_DDOT":0}]
